format  = 'OEF2.0'       ! file format
rectype = 'ML'           ! record type (1L/ML)
refsys  = ECLM J2000     ! default reference system
END_OF_HEADER
99942
! Equinoctial elements: a, e*sin(LP), e*cos(LP), tan(i/2)*sin(LN), tan(i/2)*cos(LN), mean long.
 EQU   9.2269886736945861E-01  -0.094103271182575   0.166706101213236   -0.011838547993563   -0.026632739873978  303.802464147110
 MJD     59400.000000000 TDT
 MAG  18.937  0.150
! Non-gravitational parameters: model used, number of model parameters, dimension, list of solve for parameters to be currently determined
 LSP   1  2    7    2
! Vector of dynamical parameters
! Area-to-mass ratio [m^2/t], Yarkovsky parameter [1E-10 au/day^2]
 NGR   0.00000000000000E+00 -2.90058798774592E-04
! RMS    8.56356E-11   2.21962E-09   2.75210E-09   3.12732E-09   2.86935E-09   3.80494E-07   2.35576E-06
! EIG   1.37295E-12   7.11566E-11   4.33176E-10   1.03595E-09   2.45426E-09   3.46755E-07   2.36097E-06
! WEA   0.00003  -0.00070  -0.00080  -0.00072   0.00073   0.06709   0.99775
 COV   7.333454159870582E-21 -1.430518484330030E-19 -2.039563818903334E-19
 COV  -3.113017211144542E-20  5.375862875480088E-20 -2.053004405199749E-18
 COV   1.597275681844029E-16  4.926698413567482E-18  5.740286393645988E-18
 COV   4.271352667122275E-18 -4.594913504072475E-18 -4.472180769915471E-16
 COV  -3.874443567424468E-15  7.574047815870473E-18  3.291875056941473E-18
 COV  -3.803341554265734E-18 -2.749179586767622E-16 -4.432741010457999E-15
 COV   9.780145636066158E-18 -8.803880830027464E-18 -1.124690148114898E-15
 COV  -3.965436364575741E-15  8.233161784253548E-18  1.021614851189196E-15
 COV   4.019571373629789E-15  1.447755566503557E-13  3.650738081562956E-13
 COV   5.549616302269251E-12
 NOR   5.300622209741479E+23 -2.290711161909014E+21  9.835548513140526E+21
 NOR  -5.004324032792368E+21 -1.040631488603072E+22  7.957817262570576E+19
 NOR  -1.027271939437066E+19  8.702458079894510E+19 -8.435995468610375E+19
 NOR   6.934792805283755E+19  1.152480782675332E+20 -3.145636874337803E+17
 NOR   4.607554623635341E+16  2.055868586315818E+20 -1.182917694090721E+20
 NOR  -2.303667476832532E+20  1.458526187349774E+18 -1.913853825851189E+17
 NOR   8.063490248071409E+19  1.457592239415370E+20 -7.308524987979255E+17
 NOR   9.808505855283288E+16  2.747456151627550E+20 -1.547055040491858E+18
 NOR   2.028915058610565E+17  1.205524768491713E+16 -1.539750505396746E+15
 NOR   1.995683028222035E+14
